[
  {
    "name": "Obones",
    "distance": "45.2142",
    "url": "aute@Acusage.com",
    "phone": "(820) 431-2455",
    "city": "Ivanhoe",
    "state": "Maine",
    "zipcode": 28321
  },
  {
    "name": "Bitendrex",
    "distance": "88.1872",
    "url": "deserunt@Hairport.com",
    "phone": "(921) 448-3076",
    "city": "Grazierville",
    "state": "Georgia",
    "zipcode": 26715
  },
  {
    "name": "Progenex",
    "distance": "4.0618",
    "url": "occaecat@Quordate.com",
    "phone": "(829) 488-3619",
    "city": "Wiscon",
    "state": "Virginia",
    "zipcode": 67177
  },
  {
    "name": "Ziore",
    "distance": "66.6896",
    "url": "sit@Essensia.com",
    "phone": "(848) 513-3277",
    "city": "Madrid",
    "state": "Northern Mariana Islands",
    "zipcode": 88863
  },
  {
    "name": "Kaggle",
    "distance": "1.2631",
    "url": "cupidatat@Cubicide.com",
    "phone": "(923) 497-3800",
    "city": "Shrewsbury",
    "state": "Puerto Rico",
    "zipcode": 96525
  },
  {
    "name": "Telepark",
    "distance": "39.0899",
    "url": "do@Opportech.com",
    "phone": "(973) 593-3389",
    "city": "Whitestone",
    "state": "Mississippi",
    "zipcode": 37312
  },
  {
    "name": "Puria",
    "distance": "46.0028",
    "url": "do@Kangle.com",
    "phone": "(871) 544-3379",
    "city": "Enoree",
    "state": "West Virginia",
    "zipcode": 76872
  },
  {
    "name": "Netility",
    "distance": "80.7685",
    "url": "ullamco@Zaj.com",
    "phone": "(820) 489-3076",
    "city": "Newkirk",
    "state": "Kentucky",
    "zipcode": 45598
  },
  {
    "name": "Undertap",
    "distance": "95.1206",
    "url": "culpa@Extragen.com",
    "phone": "(942) 448-2471",
    "city": "Canterwood",
    "state": "Delaware",
    "zipcode": 93737
  },
  {
    "name": "Utarian",
    "distance": "53.8309",
    "url": "adipisicing@Emtrak.com",
    "phone": "(829) 422-2323",
    "city": "Bentley",
    "state": "Colorado",
    "zipcode": 72435
  },
  {
    "name": "Dymi",
    "distance": "39.3869",
    "url": "esse@Cytrak.com",
    "phone": "(871) 565-3475",
    "city": "Sanborn",
    "state": "Idaho",
    "zipcode": 30641
  },
  {
    "name": "Anacho",
    "distance": "57.6923",
    "url": "consequat@Skybold.com",
    "phone": "(920) 454-3972",
    "city": "Ahwahnee",
    "state": "New Mexico",
    "zipcode": 84745
  },
  {
    "name": "Zaya",
    "distance": "12.0649",
    "url": "adipisicing@Namebox.com",
    "phone": "(978) 443-2749",
    "city": "Holcombe",
    "state": "Oregon",
    "zipcode": 43251
  },
  {
    "name": "Furnafix",
    "distance": "4.3163",
    "url": "aliquip@Vicon.com",
    "phone": "(980) 495-3541",
    "city": "Tooleville",
    "state": "District Of Columbia",
    "zipcode": 56770
  },
  {
    "name": "Orbean",
    "distance": "98.4215",
    "url": "eu@Katakana.com",
    "phone": "(875) 565-2027",
    "city": "Tuskahoma",
    "state": "Illinois",
    "zipcode": 95314
  },
  {
    "name": "Stralum",
    "distance": "78.732",
    "url": "pariatur@Geologix.com",
    "phone": "(957) 565-3373",
    "city": "Dunlo",
    "state": "South Carolina",
    "zipcode": 10177
  },
  {
    "name": "Photobin",
    "distance": "63.3753",
    "url": "duis@Crustatia.com",
    "phone": "(878) 433-2479",
    "city": "Waukeenah",
    "state": "Vermont",
    "zipcode": 34944
  },
  {
    "name": "Helixo",
    "distance": "60.0575",
    "url": "fugiat@Futurity.com",
    "phone": "(924) 521-3164",
    "city": "Nicholson",
    "state": "Pennsylvania",
    "zipcode": 81414
  },
  {
    "name": "Zenthall",
    "distance": "21.3781",
    "url": "et@Maroptic.com",
    "phone": "(974) 543-3341",
    "city": "Waiohinu",
    "state": "Maryland",
    "zipcode": 11936
  },
  {
    "name": "Evidends",
    "distance": "58.2394",
    "url": "incididunt@Barkarama.com",
    "phone": "(872) 434-2281",
    "city": "Yogaville",
    "state": "Alaska",
    "zipcode": 10602
  },
  {
    "name": "Zidox",
    "distance": "36.7934",
    "url": "qui@Lotron.com",
    "phone": "(862) 489-3869",
    "city": "Saranap",
    "state": "Guam",
    "zipcode": 23318
  },
  {
    "name": "Flexigen",
    "distance": "25.9276",
    "url": "ut@Mantro.com",
    "phone": "(881) 493-2093",
    "city": "Remington",
    "state": "Massachusetts",
    "zipcode": 36159
  },
  {
    "name": "Pyramia",
    "distance": "57.7286",
    "url": "dolore@Interodeo.com",
    "phone": "(874) 552-2401",
    "city": "Chaparrito",
    "state": "Federated States Of Micronesia",
    "zipcode": 89876
  },
  {
    "name": "Cyclonica",
    "distance": "4.9102",
    "url": "eu@Nixelt.com",
    "phone": "(901) 541-2488",
    "city": "Sheatown",
    "state": "New Hampshire",
    "zipcode": 27055
  },
  {
    "name": "Stelaecor",
    "distance": "24.035",
    "url": "commodo@Noralex.com",
    "phone": "(870) 424-3702",
    "city": "Walland",
    "state": "Arkansas",
    "zipcode": 91318
  },
  {
    "name": "Andershun",
    "distance": "53.9637",
    "url": "sint@Entropix.com",
    "phone": "(970) 442-2596",
    "city": "Wilsonia",
    "state": "California",
    "zipcode": 58911
  },
  {
    "name": "Bolax",
    "distance": "41.7661",
    "url": "ea@Typhonica.com",
    "phone": "(836) 600-2903",
    "city": "Winchester",
    "state": "Marshall Islands",
    "zipcode": 20626
  },
  {
    "name": "Geekol",
    "distance": "90.4289",
    "url": "velit@Assistia.com",
    "phone": "(978) 422-3509",
    "city": "Westphalia",
    "state": "Nevada",
    "zipcode": 77166
  },
  {
    "name": "Lunchpad",
    "distance": "86.1568",
    "url": "veniam@Panzent.com",
    "phone": "(976) 475-3958",
    "city": "Salunga",
    "state": "Iowa",
    "zipcode": 65113
  },
  {
    "name": "Boink",
    "distance": "42.3345",
    "url": "do@Zytrek.com",
    "phone": "(936) 566-3015",
    "city": "Devon",
    "state": "Tennessee",
    "zipcode": 38165
  },
  {
    "name": "Gaptec",
    "distance": "31.4759",
    "url": "cillum@Kog.com",
    "phone": "(904) 452-3632",
    "city": "Ticonderoga",
    "state": "Michigan",
    "zipcode": 57433
  },
  {
    "name": "Medcom",
    "distance": "3.9051",
    "url": "ea@Cogentry.com",
    "phone": "(905) 531-3344",
    "city": "Urbana",
    "state": "North Dakota",
    "zipcode": 95461
  },
  {
    "name": "Miracula",
    "distance": "80.575",
    "url": "adipisicing@Quantasis.com",
    "phone": "(946) 595-2639",
    "city": "Bison",
    "state": "Virgin Islands",
    "zipcode": 77114
  },
  {
    "name": "Magnina",
    "distance": "33.503",
    "url": "excepteur@Slax.com",
    "phone": "(815) 459-2869",
    "city": "Nicut",
    "state": "Oklahoma",
    "zipcode": 30864
  },
  {
    "name": "Quiltigen",
    "distance": "20.601",
    "url": "laboris@Comcur.com",
    "phone": "(975) 472-2018",
    "city": "Hiseville",
    "state": "Nebraska",
    "zipcode": 51943
  },
  {
    "name": "Quarex",
    "distance": "57.5593",
    "url": "aliquip@Zentry.com",
    "phone": "(840) 490-2652",
    "city": "Coultervillle",
    "state": "Kansas",
    "zipcode": 57745
  },
  {
    "name": "Zilladyne",
    "distance": "31.5841",
    "url": "est@Exoteric.com",
    "phone": "(822) 542-2692",
    "city": "Edneyville",
    "state": "Minnesota",
    "zipcode": 75962
  },
  {
    "name": "Glukgluk",
    "distance": "20.6054",
    "url": "dolor@Motovate.com",
    "phone": "(885) 485-3422",
    "city": "Greenbackville",
    "state": "Missouri",
    "zipcode": 27441
  },
  {
    "name": "Krog",
    "distance": "81.9271",
    "url": "exercitation@Acruex.com",
    "phone": "(989) 429-3744",
    "city": "Nash",
    "state": "Ohio",
    "zipcode": 71418
  },
  {
    "name": "Exotechno",
    "distance": "71.6545",
    "url": "sint@Medicroix.com",
    "phone": "(887) 450-2909",
    "city": "Veyo",
    "state": "Palau",
    "zipcode": 24814
  },
  {
    "name": "Talendula",
    "distance": "22.5909",
    "url": "ut@Shadease.com",
    "phone": "(856) 550-3588",
    "city": "Cherokee",
    "state": "Arizona",
    "zipcode": 25845
  },
  {
    "name": "Blanet",
    "distance": "58.4871",
    "url": "dolor@Acumentor.com",
    "phone": "(818) 576-3298",
    "city": "Websterville",
    "state": "Wyoming",
    "zipcode": 77961
  },
  {
    "name": "Maineland",
    "distance": "82.4039",
    "url": "qui@Steelfab.com",
    "phone": "(945) 441-3024",
    "city": "Nanafalia",
    "state": "Louisiana",
    "zipcode": 28627
  },
  {
    "name": "Enersave",
    "distance": "9.5174",
    "url": "labore@Hopeli.com",
    "phone": "(914) 574-3534",
    "city": "Barrelville",
    "state": "Montana",
    "zipcode": 83688
  },
  {
    "name": "Zounds",
    "distance": "81.6516",
    "url": "fugiat@Portalis.com",
    "phone": "(923) 590-2276",
    "city": "Torboy",
    "state": "Indiana",
    "zipcode": 17455
  },
  {
    "name": "Accufarm",
    "distance": "47.2742",
    "url": "commodo@Zillan.com",
    "phone": "(906) 477-3498",
    "city": "Garnet",
    "state": "Wisconsin",
    "zipcode": 25479
  },
  {
    "name": "Sustenza",
    "distance": "64.047",
    "url": "cillum@Roughies.com",
    "phone": "(841) 565-3571",
    "city": "Rosburg",
    "state": "Florida",
    "zipcode": 78982
  },
  {
    "name": "Bezal",
    "distance": "70.1907",
    "url": "nulla@Besto.com",
    "phone": "(855) 463-2550",
    "city": "Jackpot",
    "state": "North Carolina",
    "zipcode": 99507
  },
  {
    "name": "Ozean",
    "distance": "24.5747",
    "url": "do@Micronaut.com",
    "phone": "(820) 528-3397",
    "city": "Frierson",
    "state": "American Samoa",
    "zipcode": 39769
  },
  {
    "name": "Candecor",
    "distance": "18.5516",
    "url": "et@Qualitern.com",
    "phone": "(925) 582-3736",
    "city": "Dixonville",
    "state": "South Dakota",
    "zipcode": 36442
  },
  {
    "name": "Viocular",
    "distance": "6.829",
    "url": "excepteur@Comtrek.com",
    "phone": "(979) 588-3115",
    "city": "Alderpoint",
    "state": "Hawaii",
    "zipcode": 16231
  },
  {
    "name": "Extragene",
    "distance": "93.4556",
    "url": "commodo@Elentrix.com",
    "phone": "(964) 578-2302",
    "city": "Nogal",
    "state": "Connecticut",
    "zipcode": 57577
  },
  {
    "name": "Slumberia",
    "distance": "72.503",
    "url": "id@Songlines.com",
    "phone": "(918) 425-3644",
    "city": "Chelsea",
    "state": "Washington",
    "zipcode": 72116
  },
  {
    "name": "Grok",
    "distance": "5.3691",
    "url": "pariatur@Quizmo.com",
    "phone": "(897) 410-2748",
    "city": "Springdale",
    "state": "New Jersey",
    "zipcode": 10794
  },
  {
    "name": "Fishland",
    "distance": "31.7523",
    "url": "duis@Knowlysis.com",
    "phone": "(841) 480-2385",
    "city": "Driftwood",
    "state": "Rhode Island",
    "zipcode": 66579
  },
  {
    "name": "Ecolight",
    "distance": "33.4427",
    "url": "in@Volax.com",
    "phone": "(996) 529-2197",
    "city": "Riverton",
    "state": "New York",
    "zipcode": 94292
  },
  {
    "name": "Namegen",
    "distance": "25.3629",
    "url": "cupidatat@Zolar.com",
    "phone": "(992) 510-2771",
    "city": "Longoria",
    "state": "Texas",
    "zipcode": 64002
  },
  {
    "name": "Cosmetex",
    "distance": "25.2788",
    "url": "do@Conjurica.com",
    "phone": "(913) 516-2199",
    "city": "Carlos",
    "state": "Utah",
    "zipcode": 39611
  },
  {
    "name": "Genesynk",
    "distance": "64.7066",
    "url": "non@Jimbies.com",
    "phone": "(835) 486-2471",
    "city": "Spokane",
    "state": "Maine",
    "zipcode": 43493
  },
  {
    "name": "Isodrive",
    "distance": "88.9628",
    "url": "deserunt@Ecraze.com",
    "phone": "(862) 525-3277",
    "city": "Dale",
    "state": "Georgia",
    "zipcode": 89983
  },
  {
    "name": "Anivet",
    "distance": "69.3099",
    "url": "elit@Equitax.com",
    "phone": "(998) 400-2026",
    "city": "Thatcher",
    "state": "Virginia",
    "zipcode": 72741
  },
  {
    "name": "Softmicro",
    "distance": "33.0227",
    "url": "magna@Magnafone.com",
    "phone": "(906) 558-2455",
    "city": "Oneida",
    "state": "Northern Mariana Islands",
    "zipcode": 97248
  },
  {
    "name": "Icology",
    "distance": "28.4001",
    "url": "eiusmod@Isopop.com",
    "phone": "(905) 558-2022",
    "city": "Dixie",
    "state": "Puerto Rico",
    "zipcode": 71480
  },
  {
    "name": "Proxsoft",
    "distance": "54.5964",
    "url": "officia@Lovepad.com",
    "phone": "(804) 452-3975",
    "city": "Vallonia",
    "state": "Mississippi",
    "zipcode": 37522
  },
  {
    "name": "Lumbrex",
    "distance": "54.2813",
    "url": "sunt@Adornica.com",
    "phone": "(945) 517-2071",
    "city": "Guthrie",
    "state": "West Virginia",
    "zipcode": 83368
  },
  {
    "name": "Isologia",
    "distance": "6.8737",
    "url": "duis@Orbalix.com",
    "phone": "(969) 510-3351",
    "city": "Keller",
    "state": "Kentucky",
    "zipcode": 97048
  },
  {
    "name": "Golistic",
    "distance": "70.0032",
    "url": "ipsum@Geostele.com",
    "phone": "(914) 450-2060",
    "city": "Cashtown",
    "state": "Delaware",
    "zipcode": 37185
  },
  {
    "name": "Ezent",
    "distance": "62.061",
    "url": "consectetur@Kiosk.com",
    "phone": "(846) 485-3710",
    "city": "Blairstown",
    "state": "Colorado",
    "zipcode": 11076
  },
  {
    "name": "Farmex",
    "distance": "92.2678",
    "url": "in@Columella.com",
    "phone": "(877) 587-2982",
    "city": "Camptown",
    "state": "Idaho",
    "zipcode": 31587
  },
  {
    "name": "Comstruct",
    "distance": "56.8125",
    "url": "exercitation@Ezentia.com",
    "phone": "(811) 439-2734",
    "city": "Belmont",
    "state": "New Mexico",
    "zipcode": 17487
  },
  {
    "name": "Paprikut",
    "distance": "61.5979",
    "url": "ullamco@Omatom.com",
    "phone": "(971) 442-3710",
    "city": "Dunnavant",
    "state": "Oregon",
    "zipcode": 99968
  },
  {
    "name": "Billmed",
    "distance": "82.4379",
    "url": "minim@Exozent.com",
    "phone": "(893) 411-3106",
    "city": "Stockdale",
    "state": "District Of Columbia",
    "zipcode": 64097
  },
  {
    "name": "Idego",
    "distance": "14.697",
    "url": "fugiat@Ecratic.com",
    "phone": "(840) 572-2114",
    "city": "Sims",
    "state": "Illinois",
    "zipcode": 40198
  },
  {
    "name": "Sensate",
    "distance": "90.1159",
    "url": "do@Dragbot.com",
    "phone": "(921) 478-3332",
    "city": "Kingstowne",
    "state": "South Carolina",
    "zipcode": 44737
  },
  {
    "name": "Atgen",
    "distance": "97.9155",
    "url": "enim@Flumbo.com",
    "phone": "(869) 512-2316",
    "city": "Laurelton",
    "state": "Vermont",
    "zipcode": 73482
  },
  {
    "name": "Emtrac",
    "distance": "84.6624",
    "url": "tempor@Quotezart.com",
    "phone": "(889) 497-3762",
    "city": "Rehrersburg",
    "state": "Pennsylvania",
    "zipcode": 73061
  },
  {
    "name": "Intrawear",
    "distance": "51.8425",
    "url": "labore@Extro.com",
    "phone": "(814) 401-3691",
    "city": "Oberlin",
    "state": "Maryland",
    "zipcode": 80398
  },
  {
    "name": "Matrixity",
    "distance": "95.5168",
    "url": "qui@Zentury.com",
    "phone": "(844) 506-2578",
    "city": "Cutter",
    "state": "Alaska",
    "zipcode": 85732
  },
  {
    "name": "Escenta",
    "distance": "71.0025",
    "url": "nulla@Microluxe.com",
    "phone": "(900) 583-3468",
    "city": "Dahlen",
    "state": "Guam",
    "zipcode": 52439
  },
  {
    "name": "Menbrain",
    "distance": "58.5973",
    "url": "elit@Turnling.com",
    "phone": "(914) 448-3677",
    "city": "Wilmington",
    "state": "Massachusetts",
    "zipcode": 95144
  },
  {
    "name": "Otherway",
    "distance": "83.3775",
    "url": "labore@Quonata.com",
    "phone": "(895) 570-2935",
    "city": "Vernon",
    "state": "Federated States Of Micronesia",
    "zipcode": 33586
  },
  {
    "name": "Harmoney",
    "distance": "39.5288",
    "url": "cupidatat@Kinetica.com",
    "phone": "(814) 524-3741",
    "city": "Bangor",
    "state": "New Hampshire",
    "zipcode": 61657
  },
  {
    "name": "Digique",
    "distance": "16.5171",
    "url": "sint@Ontagene.com",
    "phone": "(912) 591-3453",
    "city": "Loma",
    "state": "Arkansas",
    "zipcode": 78322
  },
  {
    "name": "Xumonk",
    "distance": "80.7277",
    "url": "minim@Inquala.com",
    "phone": "(918) 463-2430",
    "city": "Tilleda",
    "state": "California",
    "zipcode": 11506
  },
  {
    "name": "Optyk",
    "distance": "78.6122",
    "url": "Lorem@Telequiet.com",
    "phone": "(997) 531-3448",
    "city": "Emerald",
    "state": "Marshall Islands",
    "zipcode": 80870
  },
  {
    "name": "Xelegyl",
    "distance": "24.2986",
    "url": "cupidatat@Securia.com",
    "phone": "(999) 481-2801",
    "city": "Suitland",
    "state": "Nevada",
    "zipcode": 76471
  },
  {
    "name": "Organica",
    "distance": "27.3272",
    "url": "anim@Cubix.com",
    "phone": "(863) 411-2479",
    "city": "Robbins",
    "state": "Iowa",
    "zipcode": 83248
  },
  {
    "name": "Danja",
    "distance": "76.7968",
    "url": "reprehenderit@Lyrichord.com",
    "phone": "(988) 597-3708",
    "city": "Saticoy",
    "state": "Tennessee",
    "zipcode": 76090
  },
  {
    "name": "Genmy",
    "distance": "83.252",
    "url": "non@Virva.com",
    "phone": "(897) 461-2729",
    "city": "Glasgow",
    "state": "Michigan",
    "zipcode": 40024
  },
  {
    "name": "Earthwax",
    "distance": "81.564",
    "url": "voluptate@Delphide.com",
    "phone": "(930) 473-2295",
    "city": "Osmond",
    "state": "North Dakota",
    "zipcode": 21543
  },
  {
    "name": "Accupharm",
    "distance": "25.9364",
    "url": "sit@Anarco.com",
    "phone": "(944) 517-2139",
    "city": "Richford",
    "state": "Virgin Islands",
    "zipcode": 12890
  },
  {
    "name": "Sarasonic",
    "distance": "59.0724",
    "url": "esse@Pathways.com",
    "phone": "(907) 472-2759",
    "city": "Loretto",
    "state": "Oklahoma",
    "zipcode": 31780
  },
  {
    "name": "Geekular",
    "distance": "21.3285",
    "url": "exercitation@Zensure.com",
    "phone": "(888) 586-3399",
    "city": "Herbster",
    "state": "Nebraska",
    "zipcode": 63887
  },
  {
    "name": "Calcula",
    "distance": "16.9308",
    "url": "veniam@Supremia.com",
    "phone": "(968) 593-2486",
    "city": "Wanship",
    "state": "Kansas",
    "zipcode": 39304
  },
  {
    "name": "Providco",
    "distance": "55.3945",
    "url": "reprehenderit@Netbook.com",
    "phone": "(859) 494-3523",
    "city": "Fowlerville",
    "state": "Minnesota",
    "zipcode": 29060
  },
  {
    "name": "Geeknet",
    "distance": "50.5685",
    "url": "occaecat@Sultraxin.com",
    "phone": "(993) 554-3502",
    "city": "Thermal",
    "state": "Missouri",
    "zipcode": 47103
  },
  {
    "name": "Singavera",
    "distance": "32.6092",
    "url": "nostrud@Isotronic.com",
    "phone": "(913) 559-3355",
    "city": "Cuylerville",
    "state": "Ohio",
    "zipcode": 41310
  },
  {
    "name": "Zoxy",
    "distance": "45.7004",
    "url": "deserunt@Accuprint.com",
    "phone": "(872) 579-2220",
    "city": "Topanga",
    "state": "Palau",
    "zipcode": 94355
  },
  {
    "name": "Apexia",
    "distance": "94.9978",
    "url": "elit@Interloo.com",
    "phone": "(963) 530-2881",
    "city": "Cotopaxi",
    "state": "Arizona",
    "zipcode": 71392
  },
  {
    "name": "Oronoko",
    "distance": "25.1966",
    "url": "reprehenderit@Isosphere.com",
    "phone": "(854) 461-3098",
    "city": "Reinerton",
    "state": "Wyoming",
    "zipcode": 38542
  }
]