[
    {
      "name": "Farmage",
      "pace": "10:14",
      "city": "Bagtown",
      "state": "Delaware",
      "zipcode": 37187,
      "phone": "(841) 521-3564"
    },
    {
      "name": "Prowaste",
      "pace": "10:2",
      "city": "Mammoth",
      "state": "California",
      "zipcode": 40660,
      "phone": "(915) 517-3248"
    },
    {
      "name": "Quizmo",
      "pace": "8:34",
      "city": "Olney",
      "state": "West Virginia",
      "zipcode": 54158,
      "phone": "(992) 422-3725"
    },
    {
      "name": "Zorromop",
      "pace": "9:41",
      "city": "Fairlee",
      "state": "Wyoming",
      "zipcode": 56228,
      "phone": "(865) 515-3533"
    },
    {
      "name": "Solaren",
      "pace": "12:6",
      "city": "Richford",
      "state": "New Hampshire",
      "zipcode": 78330,
      "phone": "(859) 566-2642"
    },
    {
      "name": "Savvy",
      "pace": "7:24",
      "city": "Deercroft",
      "state": "American Samoa",
      "zipcode": 80172,
      "phone": "(955) 556-3632"
    },
    {
      "name": "Fibrodyne",
      "pace": "6:48",
      "city": "Harrison",
      "state": "North Carolina",
      "zipcode": 74138,
      "phone": "(982) 522-2848"
    },
    {
      "name": "Flumbo",
      "pace": "11:15",
      "city": "Yardville",
      "state": "Alaska",
      "zipcode": 27727,
      "phone": "(926) 413-3618"
    },
    {
      "name": "Vixo",
      "pace": "6:28",
      "city": "Titanic",
      "state": "Connecticut",
      "zipcode": 57711,
      "phone": "(984) 449-2795"
    },
    {
      "name": "Cubicide",
      "pace": "7:38",
      "city": "Tioga",
      "state": "Nevada",
      "zipcode": 10009,
      "phone": "(852) 408-2366"
    },
    {
      "name": "Freakin",
      "pace": "11:53",
      "city": "Fillmore",
      "state": "Wisconsin",
      "zipcode": 95005,
      "phone": "(885) 407-2660"
    },
    {
      "name": "Zounds",
      "pace": "9:50",
      "city": "Elizaville",
      "state": "Virginia",
      "zipcode": 46723,
      "phone": "(839) 451-3743"
    },
    {
      "name": "Snowpoke",
      "pace": "9:34",
      "city": "Sabillasville",
      "state": "Ohio",
      "zipcode": 62222,
      "phone": "(944) 548-3221"
    },
    {
      "name": "Thredz",
      "pace": "12:49",
      "city": "Harold",
      "state": "Alabama",
      "zipcode": 77496,
      "phone": "(944) 409-2322"
    },
    {
      "name": "Nexgene",
      "pace": "10:3",
      "city": "Greer",
      "state": "Kentucky",
      "zipcode": 85637,
      "phone": "(884) 568-3261"
    },
    {
      "name": "Verton",
      "pace": "7:55",
      "city": "Hinsdale",
      "state": "District Of Columbia",
      "zipcode": 93093,
      "phone": "(949) 541-2681"
    },
    {
      "name": "Sealoud",
      "pace": "12:45",
      "city": "Bentonville",
      "state": "Federated States Of Micronesia",
      "zipcode": 98121,
      "phone": "(975) 564-3749"
    },
    {
      "name": "Zillan",
      "pace": "12:21",
      "city": "Alafaya",
      "state": "Georgia",
      "zipcode": 44920,
      "phone": "(955) 444-2910"
    },
    {
      "name": "Xeronk",
      "pace": "6:6",
      "city": "Herlong",
      "state": "Missouri",
      "zipcode": 18084,
      "phone": "(822) 406-2524"
    },
    {
      "name": "Quantasis",
      "pace": "8:21",
      "city": "Chalfant",
      "state": "Palau",
      "zipcode": 95871,
      "phone": "(992) 431-2331"
    },
    {
      "name": "Entroflex",
      "pace": "7:5",
      "city": "Wilsonia",
      "state": "Arkansas",
      "zipcode": 22053,
      "phone": "(847) 466-2624"
    },
    {
      "name": "Xumonk",
      "pace": "12:45",
      "city": "Martinsville",
      "state": "Utah",
      "zipcode": 68913,
      "phone": "(841) 517-3819"
    },
    {
      "name": "Grok",
      "pace": "11:47",
      "city": "Linganore",
      "state": "Guam",
      "zipcode": 44801,
      "phone": "(972) 419-2361"
    },
    {
      "name": "Pholio",
      "pace": "8:12",
      "city": "Topanga",
      "state": "Oklahoma",
      "zipcode": 32941,
      "phone": "(807) 512-3388"
    },
    {
      "name": "Peticular",
      "pace": "10:15",
      "city": "Cascades",
      "state": "New Jersey",
      "zipcode": 49580,
      "phone": "(947) 529-3544"
    },
    {
      "name": "Amtap",
      "pace": "9:34",
      "city": "Kenvil",
      "state": "South Dakota",
      "zipcode": 25379,
      "phone": "(976) 537-3454"
    },
    {
      "name": "Codact",
      "pace": "9:25",
      "city": "Osage",
      "state": "Pennsylvania",
      "zipcode": 30697,
      "phone": "(813) 492-2416"
    },
    {
      "name": "Panzent",
      "pace": "10:49",
      "city": "Kempton",
      "state": "Massachusetts",
      "zipcode": 66367,
      "phone": "(886) 449-2902"
    },
    {
      "name": "Nitracyr",
      "pace": "12:57",
      "city": "Witmer",
      "state": "Texas",
      "zipcode": 74231,
      "phone": "(878) 474-2916"
    },
    {
      "name": "Vetron",
      "pace": "10:42",
      "city": "Foxworth",
      "state": "Montana",
      "zipcode": 16163,
      "phone": "(941) 406-2310"
    },
    {
      "name": "Earbang",
      "pace": "6:5",
      "city": "Savage",
      "state": "Michigan",
      "zipcode": 18927,
      "phone": "(954) 411-2424"
    },
    {
      "name": "Veraq",
      "pace": "7:50",
      "city": "Coldiron",
      "state": "New Mexico",
      "zipcode": 26792,
      "phone": "(956) 450-3698"
    },
    {
      "name": "Zenthall",
      "pace": "9:16",
      "city": "Why",
      "state": "Marshall Islands",
      "zipcode": 12749,
      "phone": "(868) 541-2449"
    },
    {
      "name": "Edecine",
      "pace": "12:41",
      "city": "Rowe",
      "state": "Iowa",
      "zipcode": 88562,
      "phone": "(945) 556-2343"
    },
    {
      "name": "Cyclonica",
      "pace": "12:22",
      "city": "Smeltertown",
      "state": "Washington",
      "zipcode": 37936,
      "phone": "(874) 584-2697"
    },
    {
      "name": "Accuprint",
      "pace": "7:34",
      "city": "Zortman",
      "state": "Puerto Rico",
      "zipcode": 45951,
      "phone": "(903) 436-2043"
    },
    {
      "name": "Stockpost",
      "pace": "9:46",
      "city": "Wilmington",
      "state": "Hawaii",
      "zipcode": 11540,
      "phone": "(806) 502-2851"
    },
    {
      "name": "Bostonic",
      "pace": "10:16",
      "city": "Blanford",
      "state": "Nebraska",
      "zipcode": 25213,
      "phone": "(848) 585-2569"
    },
    {
      "name": "Powernet",
      "pace": "8:21",
      "city": "Lithium",
      "state": "Oregon",
      "zipcode": 97279,
      "phone": "(852) 511-3470"
    },
    {
      "name": "Xiix",
      "pace": "6:19",
      "city": "Selma",
      "state": "Kansas",
      "zipcode": 62497,
      "phone": "(994) 474-3339"
    },
    {
      "name": "Telequiet",
      "pace": "12:23",
      "city": "Sisquoc",
      "state": "Illinois",
      "zipcode": 51122,
      "phone": "(930) 534-2029"
    },
    {
      "name": "Housedown",
      "pace": "6:10",
      "city": "Escondida",
      "state": "South Carolina",
      "zipcode": 97330,
      "phone": "(904) 550-2925"
    },
    {
      "name": "Qaboos",
      "pace": "12:45",
      "city": "Advance",
      "state": "Rhode Island",
      "zipcode": 41572,
      "phone": "(848) 408-2711"
    },
    {
      "name": "Neurocell",
      "pace": "10:55",
      "city": "Roderfield",
      "state": "Florida",
      "zipcode": 55314,
      "phone": "(911) 590-2929"
    },
    {
      "name": "Zoid",
      "pace": "11:30",
      "city": "Swartzville",
      "state": "Vermont",
      "zipcode": 74956,
      "phone": "(820) 573-3702"
    },
    {
      "name": "Zialactic",
      "pace": "8:6",
      "city": "Hollymead",
      "state": "Minnesota",
      "zipcode": 96502,
      "phone": "(914) 549-3883"
    },
    {
      "name": "Atgen",
      "pace": "9:40",
      "city": "Ona",
      "state": "New York",
      "zipcode": 38518,
      "phone": "(984) 504-2785"
    },
    {
      "name": "Jimbies",
      "pace": "11:10",
      "city": "Spokane",
      "state": "Mississippi",
      "zipcode": 31648,
      "phone": "(864) 466-2547"
    },
    {
      "name": "Blanet",
      "pace": "7:50",
      "city": "Ahwahnee",
      "state": "Colorado",
      "zipcode": 81641,
      "phone": "(957) 536-2587"
    },
    {
      "name": "Ohmnet",
      "pace": "10:45",
      "city": "Mansfield",
      "state": "Tennessee",
      "zipcode": 51533,
      "phone": "(801) 417-2414"
    },
    {
      "name": "Cowtown",
      "pace": "6:44",
      "city": "Gardners",
      "state": "Maryland",
      "zipcode": 85963,
      "phone": "(843) 473-3431"
    },
    {
      "name": "Cogentry",
      "pace": "10:5",
      "city": "Edgewater",
      "state": "Maine",
      "zipcode": 78379,
      "phone": "(991) 520-2563"
    },
    {
      "name": "Dragbot",
      "pace": "11:6",
      "city": "Farmers",
      "state": "Virgin Islands",
      "zipcode": 21095,
      "phone": "(803) 585-2256"
    },
    {
      "name": "Nspire",
      "pace": "12:52",
      "city": "Homeland",
      "state": "Louisiana",
      "zipcode": 29123,
      "phone": "(918) 529-2990"
    },
    {
      "name": "Inventure",
      "pace": "8:29",
      "city": "Oneida",
      "state": "Arizona",
      "zipcode": 60659,
      "phone": "(893) 512-3843"
    },
    {
      "name": "Polarax",
      "pace": "11:16",
      "city": "Darbydale",
      "state": "Idaho",
      "zipcode": 54453,
      "phone": "(957) 566-2180"
    },
    {
      "name": "Renovize",
      "pace": "9:18",
      "city": "Rodanthe",
      "state": "Northern Mariana Islands",
      "zipcode": 57669,
      "phone": "(844) 594-2978"
    },
    {
      "name": "Homelux",
      "pace": "11:49",
      "city": "Lund",
      "state": "Indiana",
      "zipcode": 81241,
      "phone": "(810) 491-3342"
    },
    {
      "name": "Lotron",
      "pace": "8:58",
      "city": "Sylvanite",
      "state": "Delaware",
      "zipcode": 29428,
      "phone": "(910) 541-2649"
    },
    {
      "name": "Delphide",
      "pace": "8:34",
      "city": "Fairview",
      "state": "California",
      "zipcode": 29343,
      "phone": "(968) 510-2144"
    }
  ]